NORAD_CAT_ID,OBJECT_NAME,OBJECT_TYPE,EPOCH,MEAN_MOTION,ECCENTRICITY,INCLINATION,RA_OF_ASC_NODE,ARG_OF_PERICENTER,MEAN_ANOMALY,BSTAR,MEAN_MOTION_DOT,MEAN_MOTION_DDOT,TLE_LINE0,TLE_LINE1,TLE_LINE2,SEMIMAJOR_AXIS,PERIOD,APOGEE,PERIGEE,DECAYED
55773.0,STARLINK-5833,PAYLOAD,2023-11-01 22:57:53,14.98328527,0.0002685,70.0016,229.6091,272.1971,87.8881,6.3007e-05,6.59e-06,0.0,0 STARLINK-5833,1 55773U 23028AJ  23305.95687062  .00000659  00000-0  63007-4 0  9998,2 55773  70.0016 229.6091 0002685 272.1971  87.8881 14.98328527 37900,6950.197,96.107,573.929,570.196,0.0
55773.0,STARLINK-5833,PAYLOAD,2023-11-02 11:46:58,14.98335682,0.0002391,70.0026,228.2631,268.9148,91.1737,-0.00015778,-1.975e-05,0.0,0 STARLINK-5833,1 55773U 23028AJ  23306.49095078 -.00001975  00000-0 -15778-3 0  9993,2 55773  70.0026 228.2631 0002391 268.9148  91.1737 14.98335682 37985,6950.175,96.107,573.702,570.379,0.0
55773.0,STARLINK-5833,PAYLOAD,2023-11-02 21:23:46,14.98326516,0.0002788,70.0024,227.2531,273.1827,86.9013,-2.0904e-05,-3.42e-06,0.0,0 STARLINK-5833,1 55773U 23028AJ  23306.89151262 -.00000342  00000-0 -20904-4 0  9990,2 55773  70.0024 227.2531 0002788 273.1827  86.9013 14.98326516 38046,6950.204,96.107,574.006,570.131,0.0
55773.0,STARLINK-5833,PAYLOAD,2023-11-03 03:48:18,14.98347714,0.0002561,70.0017,226.5796,262.5466,97.5402,-0.00031962,-3.906e-05,0.0,0 STARLINK-5833,1 55773U 23028AJ  23307.15854577 -.00003906  00000-0 -31962-3 0  9993,2 55773  70.0017 226.5796 0002561 262.5466  97.5402 14.98347714 38080,6950.138,96.106,573.783,570.223,0.0
55773.0,STARLINK-5833,PAYLOAD,2023-11-03 11:48:58,14.98356033,0.000271,70.0019,225.7369,276.4779,83.6071,-0.00042464,-5.159e-05,0.0,0 STARLINK-5833,1 55773U 23028AJ  23307.49234211 -.00005159  00000-0 -42464-3 0  9998,2 55773  70.0019 225.7369 0002710 276.4779  83.6071 14.98356033 38134,6950.112,96.105,573.861,570.094,0.0
55773.0,STARLINK-5833,PAYLOAD,2023-11-03 18:13:31,14.98315235,0.0002846,70.0014,225.0629,274.6216,85.4618,0.00027073,3.138e-05,0.0,0 STARLINK-5833,1 55773U 23028AJ  23307.75938843  .00003138  00000-0  27073-3 0  9991,2 55773  70.0014 225.0629 0002846 274.6216  85.4618 14.98315235 38177,6950.239,96.108,574.082,570.126,0.0
55773.0,STARLINK-5833,PAYLOAD,2023-11-03 21:25:47,14.98330513,0.0002796,70.001,224.7279,268.949,91.1349,-2.7823e-06,-1.26e-06,0.0,0 STARLINK-5833,1 55773U 23028AJ  23307.89290834 -.00000126  00000-0 -27823-5 0  9998,2 55773  70.0010 224.7279 0002796 268.9490  91.1349 14.98330513 38197,6950.191,96.107,574.0,570.113,0.0
55773.0,STARLINK-5833,PAYLOAD,2023-11-04 03:50:19,14.98334877,0.0002685,70.0011,224.055,266.3501,93.7351,3.9612e-05,3.8e-06,0.0,0 STARLINK-5833,1 55773U 23028AJ  23308.15994376  .00000380  00000-0  39612-4 0  9998,2 55773  70.0011 224.0550 0002685 266.3501  93.7351 14.98334877 38238,6950.178,96.107,573.909,570.177,0.0
55773.0,STARLINK-5833,PAYLOAD,2023-11-04 11:50:59,14.98377861,0.0002269,70.0032,223.2106,288.4061,71.6852,-0.00090539,-0.00010892,0.0,0 STARLINK-5833,1 55773U 23028AJ  23308.49373912 -.00010892  00000-0 -90539-3 0  9997,2 55773  70.0032 223.2106 0002269 288.4061  71.6852 14.98377861 38289,6950.045,96.104,573.487,570.333,0.0
55773.0,STARLINK-5833,PAYLOAD,2023-11-04 19:51:40,14.98322228,0.0002883,70.0014,222.3716,273.3689,86.714,-1.0449e-05,-2.18e-06,0.0,0 STARLINK-5833,1 55773U 23028AJ  23308.82755255 -.00000218  00000-0 -10449-4 0  9992,2 55773  70.0014 222.3716 0002883 273.3689  86.7140 14.98322228 38337,6950.217,96.107,574.086,570.078,0.0
55773.0,STARLINK-5833,PAYLOAD,2023-11-04 21:27:48,14.98320806,0.0002937,70.0015,222.2034,273.0833,86.999,-2.7305e-05,-4.19e-06,0.0,0 STARLINK-5833,1 55773U 23028AJ  23308.89431412 -.00000419  00000-0 -27305-4 0  9997,2 55773  70.0015 222.2034 0002937 273.0833  86.9990 14.98320806 38344,6950.221,96.108,574.128,570.045,0.0
55773.0,STARLINK-5833,PAYLOAD,2023-11-05 11:53:00,14.98330403,0.0002854,70.0016,220.6872,268.9739,91.1093,-2.8745e-05,-4.36e-06,0.0,0 STARLINK-5833,1 55773U 23028AJ  23309.49515004 -.00000436  00000-0 -28745-4 0  9992,2 55773  70.0016 220.6872 0002854 268.9739  91.1093 14.98330403 38439,6950.192,96.107,574.04,570.073,0.0
55773.0,STARLINK-5833,PAYLOAD,2023-11-05 19:53:39,14.98344241,0.0002812,70.0021,219.8441,269.2895,90.7942,0.00029247,3.4e-05,0.0,0 STARLINK-5833,1 55773U 23028AJ  23309.82893151  .00003400  00000-0  29247-3 0  9990,2 55773  70.0021 219.8441 0002812 269.2895  90.7942 14.98344241 38486,6950.149,96.106,573.968,570.059,0.0
55773.0,STARLINK-5833,PAYLOAD,2023-11-05 21:29:46,14.98357507,0.00026,70.0006,219.6789,258.5337,101.553,0.00030623,3.565e-05,0.0,0 STARLINK-5833,1 55773U 23028AJ  23309.89568200  .00003565  00000-0  30623-3 0  9993,2 55773  70.0006 219.6789 0002600 258.5337 101.5530 14.98357507 38493,6950.108,96.105,573.78,570.166,0.0
55773.0,STARLINK-5833,PAYLOAD,2023-11-06 02:18:10,14.98368347,0.0002725,70.0004,219.1728,268.2543,91.8304,0.00038979,4.565e-05,0.0,0 STARLINK-5833,1 55773U 23028AJ  23310.09595027  .00004565  00000-0  38979-3 0  9997,2 55773  70.0004 219.1728 0002725 268.2543  91.8304 14.98368347 38522,6950.074,96.105,573.833,570.045,0.0
55773.0,STARLINK-5833,PAYLOAD,2023-11-06 11:55:00,14.98346155,0.0002353,70.001,218.1628,282.0298,78.0598,7.2817e-05,7.76e-06,0.0,0 STARLINK-5833,1 55773U 23028AJ  23310.49652790  .00000776  00000-0  72817-4 0  9992,2 55773  70.0010 218.1628 0002353 282.0298  78.0598 14.98346155 38586,6950.143,96.106,573.643,570.373,0.0
55773.0,STARLINK-5833,PAYLOAD,2023-11-06 19:55:43,14.98302419,0.0002882,70.0009,217.3208,276.2156,83.8674,-0.0002054,-2.541e-05,0.0,0 STARLINK-5833,1 55773U 23028AJ  23310.83036177 -.00002541  00000-0 -20540-3 0  9994,2 55773  70.0009 217.3208 0002882 276.2156  83.8674 14.98302419 38634,6950.278,96.109,574.146,570.14,0.0
55773.0,STARLINK-5833,PAYLOAD,2023-11-06 21:31:51,14.98302127,0.0002873,70.0007,217.1525,276.2909,83.7923,-0.00021083,-2.606e-05,0.0,0 STARLINK-5833,1 55773U 23028AJ  23310.89712306 -.00002606  00000-0 -21083-3 0  9990,2 55773  70.0007 217.1525 0002873 276.2909  83.7923 14.98302127 38641,6950.279,96.109,574.141,570.147,0.0
55773.0,STARLINK-5833,PAYLOAD,2023-11-07 03:56:23,14.98311616,0.0002938,70.0009,216.4797,276.7082,83.3743,-4.7427e-05,-6.59e-06,0.0,0 STARLINK-5833,1 55773U 23028AJ  23311.16415600 -.00000659  00000-0 -47427-4 0  9995,2 55773  70.0009 216.4797 0002938 276.7082  83.3743 14.98311616 38688,6950.25,96.108,574.157,570.073,0.0
55773.0,STARLINK-5833,PAYLOAD,2023-11-07 19:57:43,14.98338361,0.0002402,70.0005,214.797,282.214,77.8749,-0.00030702,-3.755e-05,0.0,0 STARLINK-5833,1 55773U 23028AJ  23311.83175059 -.00003755  00000-0 -30702-3 0  9997,2 55773  70.0005 214.7970 0002402 282.2140  77.8749 14.98338361 38782,6950.167,96.106,573.701,570.363,0.0
55773.0,STARLINK-5833,PAYLOAD,2023-11-08 03:58:22,14.9837306,0.0002377,70.0005,213.9551,276.7775,83.3113,-0.00064959,-7.843e-05,0.0,0 STARLINK-5833,1 55773U 23028AJ  23312.16553390 -.00007843  00000-0 -64959-3 0  9995,2 55773  70.0005 213.9551 0002377 276.7775  83.3113 14.98373060 38839,6950.06,96.104,573.577,570.273,0.0
55773.0,STARLINK-5833,PAYLOAD,2023-11-08 19:59:43,14.98312872,0.0002842,70.0009,212.2722,275.6411,84.4424,0.00026415,3.059e-05,0.0,0 STARLINK-5833,1 55773U 23028AJ  23312.83314675  .00003059  00000-0  26415-3 0  9998,2 55773  70.0009 212.2722 0002842 275.6411  84.4424 14.98312872 38939,6950.246,96.108,574.086,570.136,0.0
55773.0,STARLINK-5833,PAYLOAD,2023-11-08 21:35:52,14.98307798,0.0002965,70.001,212.104,274.3088,85.7732,0.00033755,3.935e-05,0.0,0 STARLINK-5833,1 55773U 23028AJ  23312.89990856  .00003935  00000-0  33755-3 0  9993,2 55773  70.0010 212.1040 0002965 274.3088  85.7732 14.98307798 38943,6950.262,96.108,574.187,570.066,0.0
55773.0,STARLINK-5833,PAYLOAD,2023-11-09 02:24:16,14.98319318,0.0002505,70.0008,211.6008,267.2314,92.8558,0.00026375,3.055e-05,0.0,0 STARLINK-5833,1 55773U 23028AJ  23313.10018561  .00003055  00000-0  26375-3 0  9995,2 55773  70.0008 211.6008 0002505 267.2314  92.8558 14.98319318 38970,6950.226,96.108,573.832,570.35,0.0
55773.0,STARLINK-5833,PAYLOAD,2023-11-09 23:14:00,14.98342376,0.0002715,70.0002,209.4112,275.0873,84.9976,0.00017577,2.006e-05,0.0,0 STARLINK-5833,1 55773U 23028AJ  23313.96805606  .00002006  00000-0  17577-3 0  9992,2 55773  70.0002 209.4112 0002715 275.0873  84.9976 14.98342376 39107,6950.155,96.106,573.907,570.133,0.0
55773.0,STARLINK-5833,PAYLOAD,2023-11-10 04:02:24,14.98338291,0.0002907,69.9997,208.9064,273.8455,86.2372,9.0778e-05,9.91e-06,0.0,0 STARLINK-5833,1 55773U 23028AJ  23314.16833983  .00000991  00000-0  90778-4 0  9990,2 55773  69.9997 208.9064 0002907 273.8455  86.2372 14.98338291 39131,6950.167,96.106,574.053,570.012,0.0
55773.0,STARLINK-5833,PAYLOAD,2023-11-10 20:03:45,14.98328899,0.0002469,70.0002,207.2213,262.3873,97.7005,-3.2739e-05,-4.84e-06,0.0,0 STARLINK-5833,1 55773U 23028AJ  23314.83594812 -.00000484  00000-0 -32739-4 0  9991,2 55773  70.0002 207.2213 0002469 262.3873  97.7005 14.98328899 39233,6950.196,96.107,573.777,570.345,0.0
55773.0,STARLINK-5833,PAYLOAD,2023-11-10 21:39:54,14.98328323,0.0002479,70.0003,207.053,262.5263,97.5614,-3.393e-05,-4.98e-06,0.0,0 STARLINK-5833,1 55773U 23028AJ  23314.90270849 -.00000498  00000-0 -33930-4 0  9999,2 55773  70.0003 207.0530 0002479 262.5263  97.5614 14.98328323 39247,6950.198,96.107,573.786,570.34,0.0
55773.0,STARLINK-5833,PAYLOAD,2023-11-11 10:28:58,14.98332976,0.0002554,70.0004,205.7069,280.8832,79.204,-0.0001409,-1.774e-05,0.0,0 STARLINK-5833,1 55773U 23028AJ  23315.43678926 -.00001774  00000-0 -14090-3 0  9999,2 55773  70.0004 205.7069 0002554 280.8832  79.2040 14.98332976 39327,6950.184,96.107,573.824,570.274,0.0
55773.0,STARLINK-5833,PAYLOAD,2023-11-11 20:05:48,14.98315129,0.0002983,69.9994,204.6979,269.0847,90.997,-0.00020002,-2.478e-05,0.0,0 STARLINK-5833,1 55773U 23028AJ  23315.83736247 -.00002478  00000-0 -20002-3 0  9996,2 55773  69.9994 204.6979 0002983 269.0847  90.9970 14.98315129 39380,6950.239,96.108,574.177,570.031,0.0
